{
  "norad_id": 55306,
  "name": "STARLINK-5295",
  "history": [
    {
      "epoch": "2026-03-28T21:08:52.964448Z",
      "apogee_km": 573.9372114205216,
      "perigee_km": 570.1664559706878,
      "latitude_deg": -3.178980920615892e-05,
      "longitude_deg": 172.6875479983179,
      "height_km": 574.0463670897018,
      "semi_major_axis_km": 6950.188833695604,
      "eccentricity": 0.00027127,
      "inclination_deg": 69.9986,
      "raan_deg": 316.2035,
      "arg_perigee_deg": 283.2584,
      "mean_anomaly_deg": 76.8272,
      "mean_motion_rev_day": 14.98331312
    },
    {
      "epoch": "2026-03-29T00:21:09.025056Z",
      "apogee_km": 573.9285818943654,
      "perigee_km": 570.1699211695368,
      "latitude_deg": 3.290740308022268e-05,
      "longitude_deg": 124.15224963207491,
      "height_km": 574.0362887399086,
      "semi_major_axis_km": 6950.186251531951,
      "eccentricity": 0.0002704,
      "inclination_deg": 69.9985,
      "raan_deg": 315.8667,
      "arg_perigee_deg": 283.536,
      "mean_anomaly_deg": 76.5498,
      "mean_motion_rev_day": 14.98332147
    },
    {
      "epoch": "2026-03-30T00:23:09.261024Z",
      "apogee_km": 573.9207336936106,
      "perigee_km": 570.1342840691714,
      "latitude_deg": 1.3400766985014127e-05,
      "longitude_deg": 120.13904326981675,
      "height_km": 574.0259766886683,
      "semi_major_axis_km": 6950.16450888139,
      "eccentricity": 0.0002724,
      "inclination_deg": 69.9984,
      "raan_deg": 313.3415,
      "arg_perigee_deg": 283.0803,
      "mean_anomaly_deg": 77.0052,
      "mean_motion_rev_day": 14.98339178
    },
    {
      "epoch": "2026-03-30T14:48:21.389472Z",
      "apogee_km": 573.889008801958,
      "perigee_km": 570.1462115412869,
      "latitude_deg": 5.340572070481298e-05,
      "longitude_deg": -98.26898657545766,
      "height_km": 574.0462089691518,
      "semi_major_axis_km": 6950.154610171622,
      "eccentricity": 0.00026926,
      "inclination_deg": 69.9983,
      "raan_deg": 311.8262,
      "arg_perigee_deg": 282.2889,
      "mean_anomaly_deg": 77.7969,
      "mean_motion_rev_day": 14.98342379
    }
  ]
}